STARLETTE               
1 07646U 75010A   24196.61952691 -.00000142  00000+0 -78346-6 0  9999
2 07646  49.8266 357.7291 0205607 262.0749  95.6764 13.82328970497352
LAGEOS 1                
1 08820U 76039A   24196.31724705 -.00000010  00000+0  00000+0 0  9994
2 08820 109.8616 298.5769 0044124  92.9912 321.1106  6.38665123868257
AJISAI (EGS)            
1 16908U 86061A   24196.63111094 -.00000090  00000+0  51402-4 0  9997
2 16908  50.0076 147.7234 0011217 192.1806 339.0485 12.44506518392902
COSMOS 1989 (ETALON 1)  
1 19751U 89001C   24196.00549149 -.00000030  00000+0  00000+0 0  9997
2 19751  64.5645  96.3167 0023809 215.9348 155.6625  2.13156247276388
COSMOS 2024 (ETALON 2)  
1 20026U 89039C   24196.47125021 -.00000066  00000+0  00000+0 0  9994
2 20026  65.3260 334.6335 0019528 216.8828 189.2168  2.13204522273526
LAGEOS 2                
1 22195U 92070B   24196.27300737 -.00000009  00000+0  00000+0 0  9996
2 22195  52.6801 350.8772 0137500 239.5720 291.6703  6.47293412749915
STELLA                  
1 22824U 93061B   24196.58535022 -.00000029  00000+0  67020-5 0  9990
2 22824  98.8765 243.2952 0007364 115.2375  48.1328 14.27427624604537
LARETS                  
1 27944U 03042F   24196.59580528  .00000189  00000+0  45919-4 0  9998
2 27944  98.3188 337.0907 0013524  72.2585 288.0091 14.63533307110586
LARES                   
1 38077U 12006A   24196.55672839 -.00000038  00000+0  62070-5 0  9992
2 38077  69.4899  52.4053 0009917 330.8224  29.2248 12.54931529568916
LARES-2                 
1 53105U 22080A   24194.52687277  .00000030  00000+0  00000+0 0  9991
2 53105  70.1401 186.9955 0004954 132.8839 227.2165  6.38965321 46646
